NORAD_CAT_ID,OBJECT_NAME,OBJECT_TYPE,EPOCH,MEAN_MOTION,ECCENTRICITY,INCLINATION,RA_OF_ASC_NODE,ARG_OF_PERICENTER,MEAN_ANOMALY,BSTAR,MEAN_MOTION_DOT,MEAN_MOTION_DDOT,TLE_LINE0,TLE_LINE1,TLE_LINE2,SEMIMAJOR_AXIS,PERIOD,APOGEE,PERIGEE,DECAYED
53528.0,STARLINK-4503,PAYLOAD,2023-02-22 03:19:40,15.08842312,0.0001279,53.2188,24.066,99.8375,260.2762,0.00031582,4.742e-05,0.0,0 STARLINK-4503,1 53528U 22101B   23053.13866624  .00004742  00000-0  31582-3 0  9997,2 53528  53.2188  24.0660 0001279  99.8375 260.2762 15.08842312 28357,6917.873,95.437,540.623,538.854,0.0
53528.0,STARLINK-4503,PAYLOAD,2023-02-22 06:30:26,15.08848975,0.0001141,53.2184,23.4721,84.6135,275.4987,0.00060949,9.428e-05,0.0,0 STARLINK-4503,1 53528U 22101B   23053.27114498  .00009428  00000-0  60949-3 0  9992,2 53528  53.2184  23.4721 0001141  84.6135 275.4987 15.08848975 28378,6917.853,95.437,540.507,538.929,0.0
53528.0,STARLINK-4503,PAYLOAD,2023-02-22 22:24:18,15.08839002,0.0001553,53.2192,20.4975,89.1369,270.9801,0.00061048,9.441e-05,0.0,0 STARLINK-4503,1 53528U 22101B   23053.93355086  .00009441  00000-0  61048-3 0  9991,2 53528  53.2192  20.4975 0001553  89.1369 270.9801 15.08839002 28478,6917.883,95.438,540.823,538.674,0.0
53528.0,STARLINK-4503,PAYLOAD,2023-02-23 01:35:05,15.08838911,0.0001204,53.2192,19.9028,106.8794,253.2331,0.00061297,9.481e-05,0.0,0 STARLINK-4503,1 53528U 22101B   23054.06603046  .00009481  00000-0  61297-3 0  9998,2 53528  53.2192  19.9028 0001204 106.8794 253.2331 15.08838911 28494,6917.884,95.438,540.582,538.916,0.0
53528.0,STARLINK-4503,PAYLOAD,2023-02-23 06:21:14,15.08851142,9.46e-05,53.2185,19.0122,91.2739,268.8362,0.00099131,0.00015529,0.0,0 STARLINK-4503,1 53528U 22101B   23054.26474957  .00015529  00000-0  99131-3 0  9995,2 53528  53.2185  19.0122 0000946  91.2739 268.8362 15.08851142 28521,6917.846,95.437,540.366,539.057,0.0
53528.0,STARLINK-4503,PAYLOAD,2023-02-24 01:25:51,15.08852865,0.0001002,53.2198,15.4452,92.7493,267.3614,0.00053139,8.182e-05,0.0,0 STARLINK-4503,1 53528U 22101B   23055.05962712  .00008182  00000-0  53139-3 0  9999,2 53528  53.2198  15.4452 0001002  92.7493 267.3614 15.08852865 28648,6917.841,95.437,540.399,539.013,0.0
53528.0,STARLINK-4503,PAYLOAD,2023-02-24 07:47:23,15.08867439,9.36e-05,53.2176,14.2548,85.2912,274.8187,0.00087876,0.00013736,0.0,0 STARLINK-4503,1 53528U 22101B   23055.32458154  .00013736  00000-0  87876-3 0  9995,2 53528  53.2176  14.2548 0000936  85.2912 274.8187 15.08867439 28680,6917.797,95.436,540.309,539.014,0.0
53528.0,STARLINK-4503,PAYLOAD,2023-02-24 20:30:29,15.08842594,0.0001306,53.2161,11.8741,86.3776,273.7365,-0.000213,-3.676e-05,0.0,0 STARLINK-4503,1 53528U 22101B   23055.85450767 -.00003676  00000-0 -21300-3 0  9999,2 53528  53.2161  11.8741 0001306  86.3776 273.7365 15.08842594 28764,6917.872,95.437,540.641,538.834,0.0
53528.0,STARLINK-4503,PAYLOAD,2023-02-25 06:02:48,15.08839097,0.0001175,53.2178,10.093,83.9351,276.1775,0.00023489,3.452e-05,0.0,0 STARLINK-4503,1 53528U 22101B   23056.25194915  .00003452  00000-0  23489-3 0  9994,2 53528  53.2178  10.0930 0001175  83.9351 276.1775 15.08839097 28822,6917.883,95.438,540.561,538.935,0.0
53528.0,STARLINK-4503,PAYLOAD,2023-02-26 02:42:49,15.08845235,9.83e-05,53.2164,6.2257,109.4612,250.6487,0.00059545,9.203e-05,0.0,0 STARLINK-4503,1 53528U 22101B   23057.11307035  .00009203  00000-0  59545-3 0  9991,2 53528  53.2164   6.2257 0000983 109.4612 250.6487 15.08845235 28958,6917.864,95.437,540.409,539.049,0.0
53528.0,STARLINK-4503,PAYLOAD,2023-02-26 05:53:35,15.08854941,0.0001096,53.216,5.6308,102.9813,257.1302,0.00088982,0.00013908,0.0,0 STARLINK-4503,1 53528U 22101B   23057.24554863  .00013908  00000-0  88982-3 0  9992,2 53528  53.2160   5.6308 0001096 102.9813 257.1302 15.08854941 28975,6917.835,95.437,540.458,538.942,0.0
53528.0,STARLINK-4503,PAYLOAD,2023-02-27 02:33:35,15.08853526,0.0001159,53.2175,1.7647,91.7512,268.3613,0.00047823,7.334e-05,0.0,0 STARLINK-4503,1 53528U 22101B   23058.10666480  .00007334  00000-0  47823-3 0  9992,2 53528  53.2175   1.7647 0001159  91.7512 268.3613 15.08853526 29108,6917.839,95.437,540.506,538.902,0.0
53528.0,STARLINK-4503,PAYLOAD,2023-02-28 05:35:08,15.08874703,0.0001558,53.218,356.7083,83.0574,277.0595,0.0012606,0.0001985,0.0,0 STARLINK-4503,1 53528U 22101B   23059.23273171  .00019850  00000-0  12606-2 0  9994,2 53528  53.2180 356.7083 0001558  83.0574 277.0595 15.08874703 29270,6917.774,95.435,540.717,538.562,0.0
53528.0,STARLINK-4503,PAYLOAD,2023-03-01 03:50:34,15.08788283,0.0001604,53.2178,352.5462,132.3096,227.8033,-1.6983e-05,-5.58e-06,0.0,0 STARLINK-4503,1 53528U 22101B   23060.16012147 -.00000558  00000-0 -16983-4 0  9993,2 53528  53.2178 352.5462 0001604 132.3096 227.8033 15.08788283 29414,6918.038,95.441,541.013,538.794,0.0
53528.0,STARLINK-4503,PAYLOAD,2023-03-01 07:01:21,15.08802995,0.0001338,53.2165,351.954,118.9342,241.1784,-0.00039499,-6.562e-05,0.0,0 STARLINK-4503,1 53528U 22101B   23060.29260435 -.00006562  00000-0 -39499-3 0  9999,2 53528  53.2165 351.9540 0001338 118.9342 241.1784 15.08802995 29439,6917.994,95.44,540.784,538.933,0.0
53528.0,STARLINK-4503,PAYLOAD,2023-03-02 03:41:22,15.08834448,0.0001717,53.2177,348.0895,120.4012,239.715,0.0014372,0.00022656,0.0,0 STARLINK-4503,1 53528U 22101B   23061.15373013  .00022656  00000-0  14372-2 0  9994,2 53528  53.2177 348.0895 0001717 120.4012 239.7150 15.08834448 29567,6917.897,95.438,540.95,538.575,0.0
53528.0,STARLINK-4503,PAYLOAD,2023-03-02 05:16:45,15.08848671,0.0001863,53.218,347.7908,125.3678,234.7488,0.0024804,0.00039418,0.0,0 STARLINK-4503,1 53528U 22101B   23061.21997272  .00039418  00000-0  24804-2 0  9995,2 53528  53.2180 347.7908 0001863 125.3678 234.7488 15.08848671 29579,6917.854,95.437,541.008,538.43,0.0
53528.0,STARLINK-4503,PAYLOAD,2023-03-03 03:32:08,15.0886017,0.000161,53.2182,343.6254,124.9739,235.1404,0.00047127,7.224e-05,0.0,0 STARLINK-4503,1 53528U 22101B   23062.14731984  .00007224  00000-0  47127-3 0  9998,2 53528  53.2182 343.6254 0001610 124.9739 235.1404 15.08860170 29710,6917.819,95.436,540.798,538.57,0.0
53528.0,STARLINK-4503,PAYLOAD,2023-03-04 03:22:53,15.08884462,0.0001406,53.2172,339.1665,130.7094,229.402,0.00053504,8.248e-05,0.0,0 STARLINK-4503,1 53528U 22101B   23063.14089510  .00008248  00000-0  53504-3 0  9993,2 53528  53.2172 339.1665 0001406 130.7094 229.4020 15.08884462 29863,6917.744,95.435,540.582,538.637,0.0
53528.0,STARLINK-4503,PAYLOAD,2023-03-04 04:58:16,15.0888608,0.0001359,53.2168,338.8687,127.7084,232.4031,0.00055608,8.584e-05,0.0,0 STARLINK-4503,1 53528U 22101B   23063.20713370  .00008584  00000-0  55608-3 0  9998,2 53528  53.2168 338.8687 0001359 127.7084 232.4031 15.08886080 29875,6917.74,95.435,540.545,538.664,0.0
53528.0,STARLINK-4503,PAYLOAD,2023-03-04 17:41:23,15.08843104,0.0002345,53.2177,336.4882,121.21,238.9122,-0.0001636,-2.891e-05,0.0,0 STARLINK-4503,1 53528U 22101B   23063.73707307 -.00002891  00000-0 -16360-3 0  9998,2 53528  53.2177 336.4882 0002345 121.2100 238.9122 15.08843104 29951,6917.871,95.437,541.358,538.114,0.0
53528.0,STARLINK-4503,PAYLOAD,2023-03-05 23:53:42,15.08839907,0.0001954,53.2165,330.8422,80.6366,279.4847,3.6967e-05,3e-06,0.0,0 STARLINK-4503,1 53528U 22101B   23064.99563554  .00000300  00000-0  36967-4 0  9998,2 53528  53.2165 330.8422 0001954  80.6366 279.4847 15.08839907 30146,6917.881,95.438,541.097,538.394,0.0
53528.0,STARLINK-4503,PAYLOAD,2023-03-06 04:39:52,15.08867603,0.0001269,53.2161,329.9497,60.9886,299.1233,0.0011225,0.00017635,0.0,0 STARLINK-4503,1 53528U 22101B   23065.19435471  .00017635  00000-0  11225-2 0  9994,2 53528  53.2161 329.9497 0001269  60.9886 299.1233 15.08867603 30175,6917.796,95.436,540.539,538.783,0.0
53528.0,STARLINK-4503,PAYLOAD,2023-03-06 18:58:21,15.08828821,0.0001378,53.2162,327.2741,67.3824,292.7313,0.00010861,1.441e-05,0.0,0 STARLINK-4503,1 53528U 22101B   23065.79052585  .00001441  00000-0  10861-3 0  9995,2 53528  53.2162 327.2741 0001378  67.3824 292.7313 15.08828821 30260,6917.915,95.438,540.733,538.826,0.0
53528.0,STARLINK-4503,PAYLOAD,2023-03-06 20:33:44,15.08832987,0.0001244,53.2162,326.9765,74.3311,285.7819,0.00014392,2.003e-05,0.0,0 STARLINK-4503,1 53528U 22101B   23065.85676385  .00002003  00000-0  14392-3 0  9990,2 53528  53.2162 326.9765 0001244  74.3311 285.7819 15.08832987 30275,6917.902,95.438,540.627,538.906,0.0
53528.0,STARLINK-4503,PAYLOAD,2023-03-07 04:30:39,15.0887312,0.0001229,53.2161,325.4888,81.0136,279.0995,0.0016367,0.0002588,0.0,0 STARLINK-4503,1 53528U 22101B   23066.18795674  .00025880  00000-0  16367-2 0  9991,2 53528  53.2161 325.4888 0001229  81.0136 279.0995 15.08873120 30328,6917.779,95.435,540.494,538.794,0.0
53528.0,STARLINK-4503,PAYLOAD,2023-03-07 07:41:26,15.08835249,0.0001351,53.2162,324.8945,78.4783,281.6361,0.0017247,0.00027264,0.0,0 STARLINK-4503,1 53528U 22101B   23066.32044204  .00027264  00000-0  17247-2 0  9999,2 53528  53.2162 324.8945 0001351  78.4783 281.6361 15.08835249 30348,6917.895,95.438,540.695,538.825,0.0
53528.0,STARLINK-4503,PAYLOAD,2023-03-07 20:24:31,15.08861231,0.0001233,53.2162,322.5154,69.759,290.3535,0.0020133,0.00031918,0.0,0 STARLINK-4503,1 53528U 22101B   23066.85036228  .00031918  00000-0  20133-2 0  9993,2 53528  53.2162 322.5154 0001233  69.7590 290.3535 15.08861231 30422,6917.815,95.436,540.533,538.828,0.0
53528.0,STARLINK-4503,PAYLOAD,2023-03-08 07:32:13,15.08823169,0.0002242,53.2162,320.434,54.2126,305.9074,-0.00057294,-9.391e-05,0.0,0 STARLINK-4503,1 53528U 22101B   23067.31404320 -.00009391  00000-0 -57294-3 0  9998,2 53528  53.2162 320.4340 0002242  54.2126 305.9074 15.08823169 30497,6917.932,95.439,541.348,538.246,0.0
53528.0,STARLINK-4503,PAYLOAD,2023-03-08 18:39:55,15.08860264,0.0001106,53.2161,318.352,89.4166,270.6953,0.0021034,0.00033365,0.0,0 STARLINK-4503,1 53528U 22101B   23067.77772075  .00033365  00000-0  21034-2 0  9991,2 53528  53.2161 318.3520 0001106  89.4166 270.6953 15.08860264 30563,6917.818,95.436,540.449,538.918,0.0
